IRIDIUM 98 [+]          
1 27451U 02031B   17317.47833240 -.00000002  00000-0 -78471-5 0  9991
2 27451  86.3921 319.7709 0001925 100.1376 260.0037 14.34217373812702
